QIANFAN-89              
1 63175U 25046S   25220.07788231  .00000133  00000+0  18648-3 0  9992
2 63175  88.9863 333.0907 0018335 129.4218 230.8559 13.50964879 30308
QIANFAN-90              
1 63176U 25046T   25220.10667541  .00000131  00000+0  18388-3 0  9996
2 63176  88.9863 333.0600 0015300 127.2668 232.9881 13.50963568 30320
